[{"OBJECT_NAME":"CANX-5","OBJECT_ID":"2014-034D","EPOCH":"2026-03-09T17:03:12.784896","MEAN_MOTION":14.81078391,"ECCENTRICITY":0.00123171,"INCLINATION":98.3278,"RA_OF_ASC_NODE":300.3368,"ARG_OF_PERICENTER":336.6034,"MEAN_ANOMALY":23.4615,"EPHEMERIS_TYPE":0,"CLASSIFICATION_TYPE":"U","NORAD_CAT_ID":40056,"ELEMENT_SET_NO":999,"REV_AT_EPOCH":62061,"BSTAR":0.00019034283,"MEAN_MOTION_DOT":1.421e-5,"MEAN_MOTION_DDOT":0},{"OBJECT_NAME":"SL-14 R\/B","OBJECT_ID":"1988-093B","EPOCH":"2026-03-09T22:21:05.482944","MEAN_MOTION":14.85656883,"ECCENTRICITY":0.00217506,"INCLINATION":82.5306,"RA_OF_ASC_NODE":41.8167,"ARG_OF_PERICENTER":40.7424,"MEAN_ANOMALY":18.5334,"EPHEMERIS_TYPE":0,"CLASSIFICATION_TYPE":"U","NORAD_CAT_ID":19574,"ELEMENT_SET_NO":999,"REV_AT_EPOCH":105,"BSTAR":8.475997e-5,"MEAN_MOTION_DOT":7.62e-6,"MEAN_MOTION_DDOT":0}]
